[{"OBJECT_NAME":"KUIPER-00175","OBJECT_ID":"2025-301C","EPOCH":"2026-03-03T18:00:01.999296","MEAN_MOTION":15.30720482,"ECCENTRICITY":0.0002402,"INCLINATION":51.8749,"RA_OF_ASC_NODE":93.5233,"ARG_OF_PERICENTER":26.5697,"MEAN_ANOMALY":179.9955,"EPHEMERIS_TYPE":0,"CLASSIFICATION_TYPE":"U","NORAD_CAT_ID":67135,"ELEMENT_SET_NO":999,"REV_AT_EPOCH":571,"BSTAR":-0.00038913,"MEAN_MOTION_DOT":-0.00012068,"MEAN_MOTION_DDOT":0},{"OBJECT_NAME":"KUIPER-00179","OBJECT_ID":"2025-301D","EPOCH":"2026-03-03T18:00:01.999296","MEAN_MOTION":15.17747389,"ECCENTRICITY":0.0002705,"INCLINATION":51.8798,"RA_OF_ASC_NODE":94.4536,"ARG_OF_PERICENTER":39.4824,"MEAN_ANOMALY":76.1723,"EPHEMERIS_TYPE":0,"CLASSIFICATION_TYPE":"U","NORAD_CAT_ID":67136,"ELEMENT_SET_NO":999,"REV_AT_EPOCH":572,"BSTAR":-0.00085343,"MEAN_MOTION_DOT":-0.00017727,"MEAN_MOTION_DDOT":0},{"OBJECT_NAME":"KUIPER-00181","OBJECT_ID":"2025-301E","EPOCH":"2026-03-03T18:00:01.999296","MEAN_MOTION":14.7652195,"ECCENTRICITY":0.00025,"INCLINATION":51.9007,"RA_OF_ASC_NODE":103.2207,"ARG_OF_PERICENTER":77.402,"MEAN_ANOMALY":226.025,"EPHEMERIS_TYPE":0,"CLASSIFICATION_TYPE":"U","NORAD_CAT_ID":67137,"ELEMENT_SET_NO":999,"REV_AT_EPOCH":509,"BSTAR":-0.0062635,"MEAN_MOTION_DOT":-0.0004398,"MEAN_MOTION_DDOT":0},{"OBJECT_NAME":"KUIPER-00183","OBJECT_ID":"2025-301F","EPOCH":"2026-03-03T18:00:01.999296","MEAN_MOTION":15.31153012,"ECCENTRICITY":0.0015,"INCLINATION":51.8652,"RA_OF_ASC_NODE":94.5325,"ARG_OF_PERICENTER":31.1959,"MEAN_ANOMALY":345.522,"EPHEMERIS_TYPE":0,"CLASSIFICATION_TYPE":"U","NORAD_CAT_ID":67138,"ELEMENT_SET_NO":999,"REV_AT_EPOCH":582,"BSTAR":-0.018488,"MEAN_MOTION_DOT":-0.00529436,"MEAN_MOTION_DDOT":0},{"OBJECT_NAME":"KUIPER-00184","OBJECT_ID":"2025-301G","EPOCH":"2026-03-03T11:10:34.913568","MEAN_MOTION":15.37065647,"ECCENTRICITY":0.00125088,"INCLINATION":51.8622,"RA_OF_ASC_NODE":95.7014,"ARG_OF_PERICENTER":28.5049,"MEAN_ANOMALY":331.6619,"EPHEMERIS_TYPE":0,"CLASSIFICATION_TYPE":"U","NORAD_CAT_ID":67139,"ELEMENT_SET_NO":999,"REV_AT_EPOCH":1305,"BSTAR":0.00050725249,"MEAN_MOTION_DOT":0.00018382,"MEAN_MOTION_DDOT":0},{"OBJECT_NAME":"KUIPER-00186","OBJECT_ID":"2025-301H","EPOCH":"2026-03-03T18:00:01.999296","MEAN_MOTION":14.79922666,"ECCENTRICITY":8.02e-5,"INCLINATION":51.9001,"RA_OF_ASC_NODE":104.3774,"ARG_OF_PERICENTER":86.8279,"MEAN_ANOMALY":164.275,"EPHEMERIS_TYPE":0,"CLASSIFICATION_TYPE":"U","NORAD_CAT_ID":67140,"ELEMENT_SET_NO":999,"REV_AT_EPOCH":582,"BSTAR":-0.0034449,"MEAN_MOTION_DOT":-0.00026374,"MEAN_MOTION_DDOT":0},{"OBJECT_NAME":"KUIPER-00187","OBJECT_ID":"2025-301J","EPOCH":"2026-03-03T13:33:44.891424","MEAN_MOTION":14.79973156,"ECCENTRICITY":7.12e-5,"INCLINATION":51.9024,"RA_OF_ASC_NODE":107.7059,"ARG_OF_PERICENTER":88.9988,"MEAN_ANOMALY":271.1056,"EPHEMERIS_TYPE":0,"CLASSIFICATION_TYPE":"U","NORAD_CAT_ID":67141,"ELEMENT_SET_NO":999,"REV_AT_EPOCH":1261,"BSTAR":0.00070052,"MEAN_MOTION_DOT":5.128e-5,"MEAN_MOTION_DDOT":0},{"OBJECT_NAME":"KUIPER-00188","OBJECT_ID":"2025-301K","EPOCH":"2026-03-03T07:24:52.416864","MEAN_MOTION":15.37764549,"ECCENTRICITY":0.00099743,"INCLINATION":51.8684,"RA_OF_ASC_NODE":96.2037,"ARG_OF_PERICENTER":20.8804,"MEAN_ANOMALY":339.2589,"EPHEMERIS_TYPE":0,"CLASSIFICATION_TYPE":"U","NORAD_CAT_ID":67142,"ELEMENT_SET_NO":999,"REV_AT_EPOCH":1275,"BSTAR":0.0012378834,"MEAN_MOTION_DOT":0.00046608,"MEAN_MOTION_DDOT":0},{"OBJECT_NAME":"KUIPER-00191","OBJECT_ID":"2025-301L","EPOCH":"2026-03-03T18:00:01.999296","MEAN_MOTION":14.84318602,"ECCENTRICITY":0.0009247,"INCLINATION":51.8995,"RA_OF_ASC_NODE":99.5464,"ARG_OF_PERICENTER":44.4155,"MEAN_ANOMALY":287.6798,"EPHEMERIS_TYPE":0,"CLASSIFICATION_TYPE":"U","NORAD_CAT_ID":67143,"ELEMENT_SET_NO":999,"REV_AT_EPOCH":465,"BSTAR":-0.0048727,"MEAN_MOTION_DOT":-0.00041292,"MEAN_MOTION_DDOT":0},{"OBJECT_NAME":"KUIPER-00196","OBJECT_ID":"2025-301M","EPOCH":"2026-03-03T11:03:27.108288","MEAN_MOTION":15.38525279,"ECCENTRICITY":0.00039113,"INCLINATION":51.8698,"RA_OF_ASC_NODE":95.0011,"ARG_OF_PERICENTER":1.2466,"MEAN_ANOMALY":358.853,"EPHEMERIS_TYPE":0,"CLASSIFICATION_TYPE":"U","NORAD_CAT_ID":67144,"ELEMENT_SET_NO":999,"REV_AT_EPOCH":1278,"BSTAR":0.00076726307,"MEAN_MOTION_DOT":0.0002936,"MEAN_MOTION_DDOT":0},{"OBJECT_NAME":"KUIPER-00204","OBJECT_ID":"2025-301N","EPOCH":"2026-03-03T07:22:08.764032","MEAN_MOTION":15.25931357,"ECCENTRICITY":0.00028422,"INCLINATION":51.884,"RA_OF_ASC_NODE":100.5817,"ARG_OF_PERICENTER":325.7353,"MEAN_ANOMALY":34.3445,"EPHEMERIS_TYPE":0,"CLASSIFICATION_TYPE":"U","NORAD_CAT_ID":67145,"ELEMENT_SET_NO":999,"REV_AT_EPOCH":1280,"BSTAR":0.00085919361,"MEAN_MOTION_DOT":0.0002208,"MEAN_MOTION_DDOT":0},{"OBJECT_NAME":"KUIPER-00210","OBJECT_ID":"2025-301P","EPOCH":"2026-03-03T18:00:01.999296","MEAN_MOTION":14.86352356,"ECCENTRICITY":0.0009697,"INCLINATION":51.8987,"RA_OF_ASC_NODE":99.558,"ARG_OF_PERICENTER":55.5524,"MEAN_ANOMALY":68.8108,"EPHEMERIS_TYPE":0,"CLASSIFICATION_TYPE":"U","NORAD_CAT_ID":67146,"ELEMENT_SET_NO":999,"REV_AT_EPOCH":588,"BSTAR":-0.0090594,"MEAN_MOTION_DOT":-0.00080018,"MEAN_MOTION_DDOT":0},{"OBJECT_NAME":"KUIPER-00221","OBJECT_ID":"2025-301Q","EPOCH":"2026-03-03T12:45:08.973504","MEAN_MOTION":14.79967503,"ECCENTRICITY":5.91e-5,"INCLINATION":51.9008,"RA_OF_ASC_NODE":107.8385,"ARG_OF_PERICENTER":91.4848,"MEAN_ANOMALY":268.6182,"EPHEMERIS_TYPE":0,"CLASSIFICATION_TYPE":"U","NORAD_CAT_ID":67147,"ELEMENT_SET_NO":999,"REV_AT_EPOCH":1261,"BSTAR":0.0010375,"MEAN_MOTION_DOT":7.703e-5,"MEAN_MOTION_DDOT":0},{"OBJECT_NAME":"KUIPER-00232","OBJECT_ID":"2025-301R","EPOCH":"2026-03-03T18:00:01.999296","MEAN_MOTION":15.18598832,"ECCENTRICITY":0.0002326,"INCLINATION":51.8797,"RA_OF_ASC_NODE":94.3085,"ARG_OF_PERICENTER":144.4162,"MEAN_ANOMALY":350.3038,"EPHEMERIS_TYPE":0,"CLASSIFICATION_TYPE":"U","NORAD_CAT_ID":67148,"ELEMENT_SET_NO":999,"REV_AT_EPOCH":504,"BSTAR":-0.095873,"MEAN_MOTION_DOT":-0.01829514,"MEAN_MOTION_DDOT":0},{"OBJECT_NAME":"KUIPER-00241","OBJECT_ID":"2025-301S","EPOCH":"2026-03-03T18:00:01.999296","MEAN_MOTION":14.80199567,"ECCENTRICITY":0.0002191,"INCLINATION":51.9012,"RA_OF_ASC_NODE":101.8788,"ARG_OF_PERICENTER":77.8047,"MEAN_ANOMALY":338.7678,"EPHEMERIS_TYPE":0,"CLASSIFICATION_TYPE":"U","NORAD_CAT_ID":67149,"ELEMENT_SET_NO":999,"REV_AT_EPOCH":545,"BSTAR":-0.0067191,"MEAN_MOTION_DOT":-0.00051381,"MEAN_MOTION_DDOT":0},{"OBJECT_NAME":"KUIPER-00245","OBJECT_ID":"2025-301T","EPOCH":"2026-03-03T07:49:28.579872","MEAN_MOTION":14.79966199,"ECCENTRICITY":4.445e-5,"INCLINATION":51.9018,"RA_OF_ASC_NODE":111.2666,"ARG_OF_PERICENTER":58.691,"MEAN_ANOMALY":301.4096,"EPHEMERIS_TYPE":0,"CLASSIFICATION_TYPE":"U","NORAD_CAT_ID":67150,"ELEMENT_SET_NO":999,"REV_AT_EPOCH":1254,"BSTAR":0.00067727876,"MEAN_MOTION_DOT":4.95e-5,"MEAN_MOTION_DDOT":0},{"OBJECT_NAME":"KUIPER-00246","OBJECT_ID":"2025-301U","EPOCH":"2026-03-03T18:00:01.999296","MEAN_MOTION":15.08335777,"ECCENTRICITY":0.0005091,"INCLINATION":51.8962,"RA_OF_ASC_NODE":95.6147,"ARG_OF_PERICENTER":49.2999,"MEAN_ANOMALY":219.9165,"EPHEMERIS_TYPE":0,"CLASSIFICATION_TYPE":"U","NORAD_CAT_ID":67151,"ELEMENT_SET_NO":999,"REV_AT_EPOCH":577,"BSTAR":-0.0027677,"MEAN_MOTION_DOT":-0.00043519,"MEAN_MOTION_DDOT":0}]
