KUIPER-00175            
1 67135U 25301C   26062.75002314 -.00012068  00000+0 -38913-3 0  9996
2 67135  51.8749  93.5233 0002402  26.5697 179.9955 15.30720482  5716
KUIPER-00179            
1 67136U 25301D   26062.75002314 -.00017727  00000+0 -85343-3 0  9993
2 67136  51.8798  94.4536 0002705  39.4824  76.1723 15.17747389  5720
KUIPER-00181            
1 67137U 25301E   26062.75002314 -.00043980  00000+0 -62635-2 0  9992
2 67137  51.9007 103.2207 0002500  77.4020 226.0250 14.76521950  5091
KUIPER-00183            
1 67138U 25301F   26062.75002314 -.00529436  00000+0 -18488-1 0  9994
2 67138  51.8652  94.5325 0015000  31.1959 345.5220 15.31153012  5824
KUIPER-00184            
1 67139U 25301G   26062.46568187  .00018382  00000+0  50725-3 0  9991
2 67139  51.8622  95.7014 0012508  28.5049 331.6619 15.37065647 13054
KUIPER-00186            
1 67140U 25301H   26062.75002314 -.00026374  00000+0 -34449-2 0  9996
2 67140  51.9001 104.3774 0000802  86.8279 164.2750 14.79922666  5824
KUIPER-00187            
1 67141U 25301J   26062.56510291  .00005128  00000+0  70052-3 0  9997
2 67141  51.9024 107.7059 0000712  88.9988 271.1056 14.79973156 12615
KUIPER-00188            
1 67142U 25301K   26062.30894001  .00046608  00000+0  12379-2 0  9999
2 67142  51.8684  96.2037 0009974  20.8804 339.2589 15.37764549 12757
KUIPER-00191            
1 67143U 25301L   26062.75002314 -.00041292  00000+0 -48727-2 0  9999
2 67143  51.8995  99.5464 0009247  44.4155 287.6798 14.84318602  4651
KUIPER-00196            
1 67144U 25301M   26062.46073042  .00029360  00000+0  76726-3 0  9995
2 67144  51.8698  95.0011 0003911   1.2466 358.8530 15.38525279 12787
KUIPER-00204            
1 67145U 25301N   26062.30704588  .00022080  00000+0  85919-3 0  9991
2 67145  51.8840 100.5817 0002842 325.7353  34.3445 15.25931357 12802
KUIPER-00210            
1 67146U 25301P   26062.75002314 -.00080018  00000+0 -90594-2 0  9990
2 67146  51.8987  99.5580 0009697  55.5524  68.8108 14.86352356  5882
KUIPER-00221            
1 67147U 25301Q   26062.53135386  .00007703  00000+0  10375-2 0  9990
2 67147  51.9008 107.8385 0000591  91.4848 268.6182 14.79967503 12615
KUIPER-00232            
1 67148U 25301R   26062.75002314 -.01829514  00000+0 -95873-1 0  9999
2 67148  51.8797  94.3085 0002326 144.4162 350.3038 15.18598832  5040
KUIPER-00241            
1 67149U 25301S   26062.75002314 -.00051381  00000+0 -67191-2 0  9991
2 67149  51.9012 101.8788 0002191  77.8047 338.7678 14.80199567  5452
KUIPER-00245            
1 67150U 25301T   26062.32602523  .00004950  00000+0  67728-3 0  9999
2 67150  51.9018 111.2666 0000444  58.6910 301.4096 14.79966199 12545
KUIPER-00246            
1 67151U 25301U   26062.75002314 -.00043519  00000+0 -27677-2 0  9993
2 67151  51.8962  95.6147 0005091  49.2999 219.9165 15.08335777  5770
